{
    "links": {
        "self": "http://www.neowsapp.com/rest/v1/neo/3391853?api_key=iIulBulltgU6a56xZRHN4H3l9WmuAYTsLGpBGhQ2"
    },
    "id": "3391853",
    "neo_reference_id": "3391853",
    "name": "(2007 UR51)",
    "designation": "2007 UR51",
    "nasa_jpl_url": "http://ssd.jpl.nasa.gov/sbdb.cgi?sstr=3391853",
    "absolute_magnitude_h": 21.4,
    "estimated_diameter": {
        "kilometers": {
            "estimated_diameter_min": 0.1394938229,
            "estimated_diameter_max": 0.3119176705
        },
        "meters": {
            "estimated_diameter_min": 139.4938229344,
            "estimated_diameter_max": 311.9176705226
        },
        "miles": {
            "estimated_diameter_min": 0.0866774163,
            "estimated_diameter_max": 0.1938165949
        },
        "feet": {
            "estimated_diameter_min": 457.6569140361,
            "estimated_diameter_max": 1023.3519701574
        }
    },
    "is_potentially_hazardous_asteroid": true,
    "close_approach_data": [
        {
            "close_approach_date": "2005-07-16",
            "close_approach_date_full": "2005-Jul-16 18:42",
            "epoch_date_close_approach": 1121539320000,
            "relative_velocity": {
                "kilometers_per_second": "19.1315802071",
                "kilometers_per_hour": "68873.6887456932",
                "miles_per_hour": "42795.4317653448"
            },
            "miss_distance": {
                "astronomical": "0.0971052339",
                "lunar": "37.7739359871",
                "kilometers": "14526736.157291793",
                "miles": "9026495.2839930234"
            },
            "orbiting_body": "Merc"
        },
        {
            "close_approach_date": "2007-10-19",
            "close_approach_date_full": "2007-Oct-19 16:36",
            "epoch_date_close_approach": 1192811760000,
            "relative_velocity": {
                "kilometers_per_second": "24.4074096309",
                "kilometers_per_hour": "87866.6746710823",
                "miles_per_hour": "54596.9346032622"
            },
            "miss_distance": {
                "astronomical": "0.0610445336",
                "lunar": "23.7463235704",
                "kilometers": "9132132.201703432",
                "miles": "5674443.8226820816"
            },
            "orbiting_body": "Earth"
        }
    ],
    "orbital_data": {
        "orbit_id": "17",
        "orbit_determination_date": "2017-04-06 09:05:30",
        "first_observation_date": "2007-10-31",
        "last_observation_date": "2007-11-19",
        "data_arc_in_days": 19,
        "observations_used": 66,
        "orbit_uncertainty": "8",
        "minimum_orbit_intersection": ".0126338",
        "jupiter_tisserand_invariant": "3.972",
        "epoch_osculation": "2454410.5",
        "eccentricity": ".6905768345694742",
        "semi_major_axis": "1.643482048624629",
        "inclination": "7.259736040058034",
        "ascending_node_longitude": "208.5940552897151",
        "orbital_period": "769.5660035229654",
        "perihelion_distance": ".5085314178136782",
        "perihelion_argument": "72.69733869308034",
        "aphelion_distance": "2.77843267943558",
        "perihelion_time": "2454345.038344146993",
        "mean_anomaly": "30.62270942219352",
        "mean_motion": ".4677961323031039",
        "equinox": "J2000",
        "orbit_class": {
            "orbit_class_type": "APO",
            "orbit_class_description": "Near-Earth asteroid orbits which cross the Earth’s orbit similar to that of 1862 Apollo",
            "orbit_class_range": "a (semi-major axis) > 1.0 AU; q (perihelion) < 1.017 AU"
        }
    },
    "is_sentry_object": false
}